[Satellite]
VERSION=1.1
NAME=POPACS 2
NICKNAME=POPACS 2
TLE1=1 39269U 13055E   20157.85487426  .00001827  00000-0  51776-4 0  9990
TLE2=2 39269  81.0135 346.1628 0677875 354.5001   4.8976 14.25453349345553
STATUS=0
